{"type": "FeatureCollection", "features": [ {"type": "Feature", "properties": {"norad_id": 67028, "name": "STARLINK-36132", "group": "last-30-days", "lat": 10.16983059131351, "lon": 120.96073524450452, "alt_km": 286.19160279994867, "timestamp": "2025-12-19T06:59:42.653283+00:00", "meta": {"OBJECT_NAME": "STARLINK-36132", "OBJECT_ID": "2025-293AB", "EPOCH": "2025-12-18T22:46:15.532032", "MEAN_MOTION": 15.96776399, "ECCENTRICITY": 0.00054976, "INCLINATION": 69.9933, "RA_OF_ASC_NODE": 305.7103, "ARG_OF_PERICENTER": 275.0432, "MEAN_ANOMALY": 85.0149, "EPHEMERIS_TYPE": 0, "CLASSIFICATION_TYPE": "U", "NORAD_CAT_ID": 67028, "ELEMENT_SET_NO": 999, "REV_AT_EPOCH": 260, "BSTAR": -0.00092886294, "MEAN_MOTION_DOT": -0.00399682, "MEAN_MOTION_DDOT": 5.8689833e-05}, "tle": {"line1": "1 67028U 25293AB  25352.94879088 -.00399682  58690-4 -92886-3 0  9991", "line2": "2 67028  69.9933 305.7103 0005497 275.0432  85.0149 15.96776399  2608"}}, "geometry": {"type": "Point", "coordinates": [120.96073524450452, 10.16983059131351]}}, {"type": "Feature", "properties": {"norad_id": 67029, "name": "STARLINK-36190", "group": "last-30-days", "lat": 12.897109395012547, "lon": 119.92894972125858, "alt_km": 286.87414026043734, "timestamp": "2025-12-19T06:59:42.653295+00:00", "meta": {"OBJECT_NAME": "STARLINK-36190", "OBJECT_ID": "2025-293AC", "EPOCH": "2025-12-17T20:00:01.999872", "MEAN_MOTION": 15.99071595, "ECCENTRICITY": 0.00041451, "INCLINATION": 69.9929, "RA_OF_ASC_NODE": 308.9822, "ARG_OF_PERICENTER": 267.261, "MEAN_ANOMALY": 156.3872, "EPHEMERIS_TYPE": 0, "CLASSIFICATION_TYPE": "U", "NORAD_CAT_ID": 67029, "ELEMENT_SET_NO": 999, "REV_AT_EPOCH": 238, "BSTAR": -0.002480808, "MEAN_MOTION_DOT": -0.01202844, "MEAN_MOTION_DDOT": 0.00045756265}, "tle": {"line1": "1 67029U 25293AC  25351.83335648 -.01202844  45756-3 -24808-2 0  9998", "line2": "2 67029  69.9929 308.9822 0004145 267.2610 156.3872 15.99071595  2386"}}, "geometry": {"type": "Point", "coordinates": [119.92894972125858, 12.897109395012547]}}, {"type": "Feature", "properties": {"norad_id": 67030, "name": "STARLINK-36138", "group": "last-30-days", "lat": 29.25417715130395, "lon": -74.71807611902759, "alt_km": 291.6621046160435, "timestamp": "2025-12-19T06:59:42.653306+00:00", "meta": {"OBJECT_NAME": "STARLINK-36138", "OBJECT_ID": "2025-294A", "EPOCH": "2025-12-18T18:23:45.591360", "MEAN_MOTION": 15.92867089, "ECCENTRICITY": 0.00032063, "INCLINATION": 42.9989, "RA_OF_ASC_NODE": 145.5032, "ARG_OF_PERICENTER": 313.1012, "MEAN_ANOMALY": 46.9595, "EPHEMERIS_TYPE": 0, "CLASSIFICATION_TYPE": "U", "NORAD_CAT_ID": 67030, "ELEMENT_SET_NO": 999, "REV_AT_EPOCH": 230, "BSTAR": 5.9434302e-05, "MEAN_MOTION_DOT": 0.000188, "MEAN_MOTION_DDOT": 8.530205e-06}, "tle": {"line1": "1 67030U 25294A   25352.76649990  .00018800  85302-5  59434-4 0  9994", "line2": "2 67030  42.9989 145.5032 0003206 313.1012  46.9595 15.92867089  2309"}}, "geometry": {"type": "Point", "coordinates": [-74.71807611902759, 29.25417715130395]}}, {"type": "Feature", "properties": {"norad_id": 67031, "name": "STARLINK-36150", "group": "last-30-days", "lat": 28.558857682017084, "lon": -73.50994187129915, "alt_km": 291.52553156681734, "timestamp": "2025-12-19T06:59:42.653316+00:00", "meta": {"OBJECT_NAME": "STARLINK-36150", "OBJECT_ID": "2025-294B", "EPOCH": "2025-12-18T21:24:05.641344", "MEAN_MOTION": 15.9285328, "ECCENTRICITY": 0.00047792, "INCLINATION": 42.9993, "RA_OF_ASC_NODE": 144.7223, "ARG_OF_PERICENTER": 310.8689, "MEAN_ANOMALY": 49.1773, "EPHEMERIS_TYPE": 0, "CLASSIFICATION_TYPE": "U", "NORAD_CAT_ID": 67031, "ELEMENT_SET_NO": 999, "REV_AT_EPOCH": 232, "BSTAR": 0.001615498, "MEAN_MOTION_DOT": 0.00579158, "MEAN_MOTION_DDOT": 0.00014094593}, "tle": {"line1": "1 67031U 25294B   25352.89173196  .00579158  14095-3  16155-2 0  9997", "line2": "2 67031  42.9993 144.7223 0004779 310.8689  49.1773 15.92853280  2321"}}, "geometry": {"type": "Point", "coordinates": [-73.50994187129915, 28.558857682017084]}}, {"type": "Feature", "properties": {"norad_id": 67032, "name": "STARLINK-36131", "group": "last-30-days", "lat": 27.1346852173562, "lon": -71.14983587390927, "alt_km": 292.0604734839244, "timestamp": "2025-12-19T06:59:42.653327+00:00", "meta": {"OBJECT_NAME": "STARLINK-36131", "OBJECT_ID": "2025-294C", "EPOCH": "2025-12-18T21:23:13.516224", "MEAN_MOTION": 15.925755, "ECCENTRICITY": 0.00015183, "INCLINATION": 42.9978, "RA_OF_ASC_NODE": 144.7117, "ARG_OF_PERICENTER": 255.7922, "MEAN_ANOMALY": 104.2785, "EPHEMERIS_TYPE": 0, "CLASSIFICATION_TYPE": "U", "NORAD_CAT_ID": 67032, "ELEMENT_SET_NO": 999, "REV_AT_EPOCH": 232, "BSTAR": -0.00099474147, "MEAN_MOTION_DOT": -0.00355807, "MEAN_MOTION_DDOT": 4.9121538e-05}, "tle": {"line1": "1 67032U 25294C   25352.89112866 -.00355807  49122-4 -99474-3 0  9996", "line2": "2 67032  42.9978 144.7117 0001518 255.7922 104.2785 15.92575500  2324"}}, "geometry": {"type": "Point", "coordinates": [-71.14983587390927, 27.1346852173562]}}, {"type": "Feature", "properties": {"norad_id": 67033, "name": "STARLINK-36137", "group": "last-30-days", "lat": 27.562983004052214, "lon": -71.84176328557086, "alt_km": 291.3883504934456, "timestamp": "2025-12-19T06:59:42.653341+00:00", "meta": {"OBJECT_NAME": "STARLINK-36137", "OBJECT_ID": "2025-294D", "EPOCH": "2025-12-18T21:23:40.443648", "MEAN_MOTION": 15.92925549, "ECCENTRICITY": 0.00047226, "INCLINATION": 42.9991, "RA_OF_ASC_NODE": 144.7192, "ARG_OF_PERICENTER": 306.7424, "MEAN_ANOMALY": 53.3018, "EPHEMERIS_TYPE": 0, "CLASSIFICATION_TYPE": "U", "NORAD_CAT_ID": 67033, "ELEMENT_SET_NO": 999, "REV_AT_EPOCH": 232, "BSTAR": 0.001643202, "MEAN_MOTION_DOT": 0.00591327, "MEAN_MOTION_DDOT": 0.00014704257}, "tle": {"line1": "1 67033U 25294D   25352.89144032  .00591327  14704-3  16432-2 0  9993", "line2": "2 67033  42.9991 144.7192 0004722 306.7424  53.3018 15.92925549  2322"}}, "geometry": {"type": "Point", "coordinates": [-71.84176328557086, 27.562983004052214]}}, {"type": "Feature", "properties": {"norad_id": 67034, "name": "STARLINK-36140", "group": "last-30-days", "lat": 26.595136311272828, "lon": -70.27679032555929, "alt_km": 295.152549739445, "timestamp": "2025-12-19T06:59:42.653354+00:00", "meta": {"OBJECT_NAME": "STARLINK-36140", "OBJECT_ID": "2025-294E", "EPOCH": "2025-12-18T22:00:00.999936", "MEAN_MOTION": 15.92267367, "ECCENTRICITY": 0.0001563, "INCLINATION": 42.9997, "RA_OF_ASC_NODE": 144.5539, "ARG_OF_PERICENTER": 267.0825, "MEAN_ANOMALY": 241.4553, "EPHEMERIS_TYPE": 0, "CLASSIFICATION_TYPE": "U", "NORAD_CAT_ID": 67034, "ELEMENT_SET_NO": 999, "REV_AT_EPOCH": 130, "BSTAR": -0.0036958172, "MEAN_MOTION_DOT": -0.01287293, "MEAN_MOTION_DDOT": 0.00048070636}, "tle": {"line1": "1 67034U 25294E   25352.91667824 -.01287293  48071-3 -36958-2 0  9992", "line2": "2 67034  42.9997 144.5539 0001563 267.0825 241.4553 15.92267367  1304"}}, "geometry": {"type": "Point", "coordinates": [-70.27679032555929, 26.595136311272828]}}, {"type": "Feature", "properties": {"norad_id": 67035, "name": "STARLINK-36085", "group": "last-30-days", "lat": 22.744627719271683, "lon": -64.53365738029804, "alt_km": 291.38745043156905, "timestamp": "2025-12-19T06:59:42.653364+00:00", "meta": {"OBJECT_NAME": "STARLINK-36085", "OBJECT_ID": "2025-294F", "EPOCH": "2025-12-18T18:21:11.787264", "MEAN_MOTION": 15.93347153, "ECCENTRICITY": 0.00037144, "INCLINATION": 42.9994, "RA_OF_ASC_NODE": 145.4883, "ARG_OF_PERICENTER": 318.8717, "MEAN_ANOMALY": 41.1879, "EPHEMERIS_TYPE": 0, "CLASSIFICATION_TYPE": "U", "NORAD_CAT_ID": 67035, "ELEMENT_SET_NO": 999, "REV_AT_EPOCH": 230, "BSTAR": 0.00033958478, "MEAN_MOTION_DOT": 0.00123051, "MEAN_MOTION_DDOT": 1.4054397e-05}, "tle": {"line1": "1 67035U 25294F   25352.76471976  .00123051  14054-4  33958-3 0  9998", "line2": "2 67035  42.9994 145.4883 0003714 318.8717  41.1879 15.93347153  2309"}}, "geometry": {"type": "Point", "coordinates": [-64.53365738029804, 22.744627719271683]}}, {"type": "Feature", "properties": {"norad_id": 67036, "name": "STARLINK-36125", "group": "last-30-days", "lat": 24.802412290881755, "lon": -67.52367809532831, "alt_km": 292.16626761270254, "timestamp": "2025-12-19T06:59:42.653374+00:00", "meta": {"OBJECT_NAME": "STARLINK-36125", "OBJECT_ID": "2025-294G", "EPOCH": "2025-12-18T21:22:16.417920", "MEAN_MOTION": 15.92728319, "ECCENTRICITY": 0.00013973, "INCLINATION": 42.998, "RA_OF_ASC_NODE": 144.7067, "ARG_OF_PERICENTER": 271.2094, "MEAN_ANOMALY": 88.8621, "EPHEMERIS_TYPE": 0, "CLASSIFICATION_TYPE": "U", "NORAD_CAT_ID": 67036, "ELEMENT_SET_NO": 999, "REV_AT_EPOCH": 232, "BSTAR": -0.001021653, "MEAN_MOTION_DOT": -0.00368266, "MEAN_MOTION_DDOT": 5.203223e-05}, "tle": {"line1": "1 67036U 25294G   25352.89046780 -.00368266  52032-4 -10217-2 0  9995", "line2": "2 67036  42.9980 144.7067 0001397 271.2094  88.8621 15.92728319  2327"}}, "geometry": {"type": "Point", "coordinates": [-67.52367809532831, 24.802412290881755]}}, {"type": "Feature", "properties": {"norad_id": 67037, "name": "STARLINK-35732", "group": "last-30-days", "lat": 22.351372441516112, "lon": -63.982309084621825, "alt_km": 293.7278001320301, "timestamp": "2025-12-19T06:59:42.653385+00:00", "meta": {"OBJECT_NAME": "STARLINK-35732", "OBJECT_ID": "2025-294H", "EPOCH": "2025-12-18T21:21:16.222176", "MEAN_MOTION": 15.92822372, "ECCENTRICITY": 0.00025529, "INCLINATION": 42.9994, "RA_OF_ASC_NODE": 144.7043, "ARG_OF_PERICENTER": 332.2119, "MEAN_ANOMALY": 27.862, "EPHEMERIS_TYPE": 0, "CLASSIFICATION_TYPE": "U", "NORAD_CAT_ID": 67037, "ELEMENT_SET_NO": 999, "REV_AT_EPOCH": 232, "BSTAR": -0.0014410581, "MEAN_MOTION_DOT": -0.00520748, "MEAN_MOTION_DDOT": 9.4002976e-05}, "tle": {"line1": "1 67037U 25294H   25352.88977109 -.00520748  94003-4 -14411-2 0  9992", "line2": "2 67037  42.9994 144.7043 0002552 332.2119  27.8620 15.92822372  2323"}}, "geometry": {"type": "Point", "coordinates": [-63.982309084621825, 22.351372441516112]}}]}